{
    "links": {
        "self": "http://www.neowsapp.com/rest/v1/neo/3547634?api_key=iIulBulltgU6a56xZRHN4H3l9WmuAYTsLGpBGhQ2"
    },
    "id": "3547634",
    "neo_reference_id": "3547634",
    "name": "(2010 SU15)",
    "designation": "2010 SU15",
    "nasa_jpl_url": "http://ssd.jpl.nasa.gov/sbdb.cgi?sstr=3547634",
    "absolute_magnitude_h": 26.1,
    "estimated_diameter": {
        "kilometers": {
            "estimated_diameter_min": 0.0160160338,
            "estimated_diameter_max": 0.0358129403
        },
        "meters": {
            "estimated_diameter_min": 16.0160337979,
            "estimated_diameter_max": 35.8129403019
        },
        "miles": {
            "estimated_diameter_min": 0.0099518989,
            "estimated_diameter_max": 0.0222531225
        },
        "feet": {
            "estimated_diameter_min": 52.5460443254,
            "estimated_diameter_max": 117.4965270602
        }
    },
    "is_potentially_hazardous_asteroid": false,
    "close_approach_data": [
        {
            "close_approach_date": "2010-09-29",
            "close_approach_date_full": "2010-Sep-29 08:42",
            "epoch_date_close_approach": 1285749720000,
            "relative_velocity": {
                "kilometers_per_second": "6.3341743702",
                "kilometers_per_hour": "22803.0277325877",
                "miles_per_hour": "14168.9146486182"
            },
            "miss_distance": {
                "astronomical": "0.0625673626",
                "lunar": "24.3387040514",
                "kilometers": "9359944.176477662",
                "miles": "5815999.6197772556"
            },
            "orbiting_body": "Earth"
        },
        {
            "close_approach_date": "2103-11-08",
            "close_approach_date_full": "2103-Nov-08 23:14",
            "epoch_date_close_approach": 4224006840000,
            "relative_velocity": {
                "kilometers_per_second": "16.0505745704",
                "kilometers_per_hour": "57782.0684535898",
                "miles_per_hour": "35903.5302566208"
            },
            "miss_distance": {
                "astronomical": "0.361724829",
                "lunar": "140.710958481",
                "kilometers": "54113263.94451423",
                "miles": "33624423.029907174"
            },
            "orbiting_body": "Earth"
        }
    ],
    "orbital_data": {
        "orbit_id": "9",
        "orbit_determination_date": "2017-04-06 08:56:31",
        "first_observation_date": "2010-09-30",
        "last_observation_date": "2010-10-10",
        "data_arc_in_days": 10,
        "observations_used": 21,
        "orbit_uncertainty": "8",
        "minimum_orbit_intersection": ".0619007",
        "jupiter_tisserand_invariant": "3.499",
        "epoch_osculation": "2455473.5",
        "eccentricity": ".5113414895607684",
        "semi_major_axis": "2.176584532856207",
        "inclination": "4.310095217332996",
        "ascending_node_longitude": "10.34300012822413",
        "orbital_period": "1172.902021777009",
        "perihelion_distance": "1.063606555670585",
        "perihelion_argument": "354.3630358952503",
        "aphelion_distance": "3.289562510041829",
        "perihelion_time": "2455468.073862389338",
        "mean_anomaly": "1.665449887177106",
        "mean_motion": ".3069310081455745",
        "equinox": "J2000",
        "orbit_class": {
            "orbit_class_type": "AMO",
            "orbit_class_description": "Near-Earth asteroid orbits similar to that of 1221 Amor",
            "orbit_class_range": "1.017 AU < q (perihelion) < 1.3 AU"
        }
    },
    "is_sentry_object": false
}